0 MICRO LABSAT
1 27600U 02056D   13281.49335919  .00000081  00000-0  47868-4 0   454
2 27600 098.2431 283.3143 0009662 271.2372 250.9073 14.29156094564276
0 MICRO LABSAT
1 27600U 02056D   13282.81608917  .00000100  00000-0  55466-4 0   468
2 27600 098.2430 284.5656 0009687 266.8506 216.7722 14.29156807564467
0 MICRO LABSAT
1 27600U 02056D   13283.99257880  .00000128  00000-0  66600-4 0   470
2 27600 098.2428 285.6786 0009714 262.9515 150.1823 14.29157191564637
0 MICRO LABSAT
1 27600U 02056D   13285.48482238  .00000100  00000-0  55277-4 0   482
2 27600 098.2426 287.0902 0009755 257.9897 268.2646 14.29157818564846
0 MICRO LABSAT
1 27600U 02056D   13286.80707411  .00000114  00000-0  61052-4 0   496
2 27600 098.2425 288.3410 0009795 253.6753 231.6049 14.29158043565035
0 MICRO LABSAT
1 27600U 02056D   13288.05233543  .00000145  00000-0  73336-4 0   509
2 27600 098.2425 289.5189 0009847 249.5843 158.8358 14.29158849565210
0 MICRO LABSAT
1 27600U 02056D   13289.10119693  .00000120  00000-0  63131-4 0   511
2 27600 098.2426 290.5109 0009881 246.1549 155.5197 14.29159453565362
0 MICRO LABSAT
1 27600U 02056D   13290.58613667  .00000124  00000-0  64770-4 0   520
2 27600 098.2428 291.9154 0009950 241.2939 235.9571 14.29159925565571
0 MICRO LABSAT
1 27600U 02056D   13291.76365600  .00000130  00000-0  67318-4 0   531
2 27600 098.2429 293.0290 0010007 237.4957 174.5752 14.29160179565749
0 MICRO LABSAT
1 27600U 02056D   13292.82747924  .00000140  00000-0  71280-4 0   547
2 27600 098.2431 294.0352 0010057 234.1148 248.1497 14.29160434565897
0 MICRO LABSAT
1 27600U 02056D   13294.07283772  .00000133  00000-0  68412-4 0   558
2 27600 098.2432 295.2131 0010124 230.1168 175.7993 14.29160894566076
0 MICRO LABSAT
1 27600U 02056D   13295.48712892  .00000141  00000-0  71678-4 0   562
2 27600 098.2432 296.5509 0010192 225.6443 252.5799 14.29161420566275
